{
    "links": {
        "self": "http://www.neowsapp.com/rest/v1/neo/3141532?api_key=iIulBulltgU6a56xZRHN4H3l9WmuAYTsLGpBGhQ2"
    },
    "id": "3141532",
    "neo_reference_id": "3141532",
    "name": "(2002 VQ14)",
    "designation": "2002 VQ14",
    "nasa_jpl_url": "http://ssd.jpl.nasa.gov/sbdb.cgi?sstr=3141532",
    "absolute_magnitude_h": 21.1,
    "estimated_diameter": {
        "kilometers": {
            "estimated_diameter_min": 0.160160338,
            "estimated_diameter_max": 0.358129403
        },
        "meters": {
            "estimated_diameter_min": 160.1603379786,
            "estimated_diameter_max": 358.1294030194
        },
        "miles": {
            "estimated_diameter_min": 0.0995189894,
            "estimated_diameter_max": 0.2225312253
        },
        "feet": {
            "estimated_diameter_min": 525.4604432536,
            "estimated_diameter_max": 1174.9652706022
        }
    },
    "is_potentially_hazardous_asteroid": false,
    "close_approach_data": [
        {
            "close_approach_date": "2002-11-01",
            "close_approach_date_full": "2002-Nov-01 00:31",
            "epoch_date_close_approach": 1036110660000,
            "relative_velocity": {
                "kilometers_per_second": "4.387055219",
                "kilometers_per_hour": "15793.3987884554",
                "miles_per_hour": "9813.4038194155"
            },
            "miss_distance": {
                "astronomical": "0.292623375",
                "lunar": "113.830492875",
                "kilometers": "43775833.61221125",
                "miles": "27201041.67756525"
            },
            "orbiting_body": "Earth"
        }
    ],
    "orbital_data": {
        "orbit_id": "7",
        "orbit_determination_date": "2017-04-06 09:14:41",
        "first_observation_date": "2002-11-05",
        "last_observation_date": "2002-12-13",
        "data_arc_in_days": 38,
        "observations_used": 73,
        "orbit_uncertainty": "6",
        "minimum_orbit_intersection": ".263361",
        "jupiter_tisserand_invariant": "3.214",
        "epoch_osculation": "2459000.5",
        "eccentricity": ".5148581253286996",
        "semi_major_axis": "2.579797294030011",
        "inclination": "7.318927648063136",
        "ascending_node_longitude": "235.9363743256679",
        "orbital_period": "1513.480400364029",
        "perihelion_distance": "1.251567695497668",
        "perihelion_argument": "159.9342286423568",
        "aphelion_distance": "3.908026892562355",
        "perihelion_time": "2458653.457185974610",
        "mean_anomaly": "82.54841821479191",
        "mean_motion": ".237862346888279",
        "equinox": "J2000",
        "orbit_class": {
            "orbit_class_type": "AMO",
            "orbit_class_description": "Near-Earth asteroid orbits similar to that of 1221 Amor",
            "orbit_class_range": "1.017 AU < q (perihelion) < 1.3 AU"
        }
    },
    "is_sentry_object": false
}